SIRION PATHFINDER-2     
1 43759U 18099B   26173.40108372  .00003627  00000+0  19997-3 0  9994
2 43759  97.4251 222.3345 0007062 282.6512  77.3930 15.14587110413415
CORVUS BC4              
1 43767U 18099K   26173.08394540  .00002930  00000+0  17172-3 0  9990
2 43767  97.4064 215.9209 0007782 356.3160   3.8012 15.12525323413141
M2 PATHFINDER           
1 45727U 20037E   26173.49992965  .00001295  00000+0  96468-4 0  9992
2 45727  97.8140   4.7911 0012599 130.9133 229.3186 15.04689451326290
NETSAT-4                
1 46504U 20068U   26173.82817416  .00014243  00000+0  31416-3 0  9992
2 46504  97.8608 182.5223 0003301 308.7696  51.3256 15.44023993316640
NETSAT-3                
1 46505U 20068V   26171.95787598  .00015372  00000+0  35310-3 0  9993
2 46505  97.8658 178.7133 0003658 345.6724  14.4418 15.42791049316260
NETSAT-1                
1 46506U 20068W   26173.41672899  .00009448  00000+0  28304-3 0  9996
2 46506  97.8749 174.5570 0004400  16.5609 343.5776 15.34744139316108
NETSAT-2                
1 46507U 20068X   26173.47205676  .00018145  00000+0  37111-3 0  9998
2 46507  97.8620 182.0511 0002679   8.6328 351.4966 15.46194573316554
GREENCUBE (IO-117)      
1 53109U 22080E   26173.32029992 -.00000003  00000+0  00000+0 0  9997
2 53109  70.1445 296.4598 0008935 288.3983  71.5705  6.42583197 92393
SITRO-AIS 5 (KATYS)     
1 57176U 23091L   26173.82716590  .00009065  00000+0  31827-3 0  9991
2 57176  97.5059 237.7804 0012646  86.0557 274.2128 15.29564385165202
SITRO-AIS 6 (CHIRKIN)   
1 57192U 23091AC  26173.81915585  .00007470  00000+0  29249-3 0  9996
2 57192  97.5066 236.8615 0013021  89.1376 271.1354 15.26023612165149
SITRO-AIS 8 (ANOKHIN)   
1 57193U 23091AD  26173.83429628  .00010602  00000+0  34209-3 0  9990
2 57193  97.5055 239.3993 0011632  82.5833 277.6730 15.32264942165314
SITRO-AIS 7 (FARTUSHNIY)
1 57194U 23091AE  26173.82345888  .00007214  00000+0  28527-3 0  9996
2 57194  97.5063 236.6880 0012903  90.0381 270.2335 15.25709575165131
SITRO-AIS 10 (BURDAEV)  
1 57199U 23091AK  26173.84199748  .00015621  00000+0  40880-3 0  9992
2 57199  97.5079 244.5199 0007089  63.2276 296.9693 15.38794773165633
SITRO-AIS 9 (SHCHUKIN)  
1 57201U 23091AM  26173.80516361  .00015542  00000+0  41337-3 0  9996
2 57201  97.5077 244.2076 0007364  63.3764 296.8234 15.38295539165619
SITRO-AIS 12 (SMIRENNIY)
1 57204U 23091AQ  26173.85975109  .00015562  00000+0  40998-3 0  9997
2 57204  97.5089 244.7342 0006871  58.4269 301.7646 15.38591522165640
SITRO-AIS 11 (SHEFFER)  
1 57208U 23091AU  26173.80657556  .00016178  00000+0  42025-3 0  9996
2 57208  97.5088 244.9299 0006749  58.2774 301.9128 15.39018714165655
SITRO-AIS 25            
1 59066U 24039R   26173.87003459  .00001895  00000+0  14999-3 0  9996
2 59066  95.3910 238.9978 0142916 308.6843  50.1668 14.93536443125574
SITRO-AIS 26            
1 59067U 24039S   26173.87218346  .00001819  00000+0  14481-3 0  9992
2 59067  95.3907 238.8958 0143273 309.2737  49.5849 14.93331581125562
SITRO-AIS 27            
1 59068U 24039T   26173.84083385  .00001731  00000+0  13674-3 0  9999
2 59068  95.3912 239.1485 0142280 307.9722  50.8719 14.93750681125583
SITRO-AIS 28            
1 59071U 24039U   26173.81814789  .00001606  00000+0  12701-3 0  9991
2 59071  95.3910 239.1805 0142181 307.8972  50.9466 14.93785040125584
GRBBETA                 
1 60237U 24128C   26173.52945703  .00002145  00000+0  15599-3 0  9992
2 60237  61.9882 197.5223 0039947 135.7790 224.6508 15.06664014107072
OOV-CUBE (TUBSAT-30)    
1 60240U 24128F   26173.57817917  .00001157  00000+0  10015-3 0  9996
2 60240  61.9926 206.7746 0043962 134.9443 225.5227 15.02789334106926
ROBUSTA-3A (MEDITERRAN*)
1 60243U 24128J   26173.42654769  .00003434  00000+0  20996-3 0  9996
2 60243  61.9849 189.7146 0040671 129.0308 231.4419 15.11716494107215
LASARSAT                
1 62391U 24247Q   26173.20827942  .00024063  00000+0  47719-3 0  9998
2 62391  44.9730 233.9932 0007623   0.6101 359.4797 15.46631788 84091
CROCUBE                 
1 62394U 24247T   26173.45795366  .00026289  00000+0  48673-3 0  9994
2 62394  44.9701 229.8368 0007508   6.8076 353.2915 15.48568004 84164
FORESAIL-1 PRIME        
1 66778U 25276DS  26173.79460901  .00003446  00000+0  16914-3 0  9991
2 66778  97.4197 246.9630 0003926  92.2358 267.9326 15.18744024 31254
KNACKSAT-2              
1 67683U 98067XZ  26173.53867741  .00038699  00000+0  46548-3 0  9994
2 67683  51.6293 267.5508 0008770 238.8673 121.1461 15.60406263 21114
