OBJECT_NAME,OBJECT_ID,EPOCH,MEAN_MOTION,ECCENTRICITY,INCLINATION,RA_OF_ASC_NODE,ARG_OF_PERICENTER,MEAN_ANOMALY,EPHEMERIS_TYPE,CLASSIFICATION_TYPE,NORAD_CAT_ID,ELEMENT_SET_NO,REV_AT_EPOCH,BSTAR,MEAN_MOTION_DOT,MEAN_MOTION_DDOT
SIRION PATHFINDER-2,2018-099B,2026-06-22T09:37:33.633408,15.14587110,.00070621,97.4251,222.3345,282.6512,77.3930,0,U,43759,999,41341,.19996733E-3,.3627E-4,0
CORVUS BC4,2018-099K,2026-06-22T02:00:52.882560,15.12525323,.00077829,97.4064,215.9209,356.3160,3.8012,0,U,43767,999,41314,.17171823E-3,.293E-4,0
M2 PATHFINDER,2020-037E,2026-06-22T11:59:53.921760,15.04689451,.00125998,97.8140,4.7911,130.9133,229.3186,0,U,45727,999,32629,.96468097E-4,.1295E-4,0
NETSAT-4,2020-068U,2026-06-22T19:52:34.247424,15.44023993,.00033011,97.8608,182.5223,308.7696,51.3256,0,U,46504,999,31664,.31415553E-3,.14243E-3,0
NETSAT-3,2020-068V,2026-06-20T22:59:20.484672,15.42791049,.00036583,97.8658,178.7133,345.6724,14.4418,0,U,46505,999,31626,.3531039E-3,.15372E-3,0
NETSAT-1,2020-068W,2026-06-22T10:00:05.384736,15.34744139,.00044,97.8749,174.5570,16.5609,343.5776,0,U,46506,999,31610,.28303575E-3,.9448E-4,0
NETSAT-2,2020-068X,2026-06-22T11:19:45.704064,15.46194573,.00026796,97.8620,182.0511,8.6328,351.4966,0,U,46507,999,31655,.37111007E-3,.18145E-3,0
GREENCUBE (IO-117),2022-080E,2026-06-22T07:41:13.913088,6.42583197,.00089351,70.1445,296.4598,288.3983,71.5705,0,U,53109,999,9239,0,-.3E-7,0
SITRO-AIS 5 (KATYS),2023-091L,2026-06-22T19:51:07.133760,15.29564385,.00126464,97.5059,237.7804,86.0557,274.2128,0,U,57176,999,16520,.31827195E-3,.9065E-4,0
SITRO-AIS 6 (CHIRKIN),2023-091AC,2026-06-22T19:39:35.065440,15.26023612,.00130215,97.5066,236.8615,89.1376,271.1354,0,U,57192,999,16514,.29248895E-3,.747E-4,0
SITRO-AIS 8 (ANOKHIN),2023-091AD,2026-06-22T20:01:23.198592,15.32264942,.00116325,97.5055,239.3993,82.5833,277.6730,0,U,57193,999,16531,.34208977E-3,.10602E-3,0
SITRO-AIS 7 (FARTUSHNIY),2023-091AE,2026-06-22T19:45:46.847232,15.25709575,.0012903,97.5063,236.6880,90.0381,270.2335,0,U,57194,999,16513,.28526582E-3,.7214E-4,0
SITRO-AIS 10 (BURDAEV),2023-091AK,2026-06-22T20:12:28.582272,15.38794773,.00070894,97.5079,244.5199,63.2276,296.9693,0,U,57199,999,16563,.40879759E-3,.15621E-3,0
SITRO-AIS 9 (SHCHUKIN),2023-091AM,2026-06-22T19:19:26.135904,15.38295539,.0007364,97.5077,244.2076,63.3764,296.8234,0,U,57201,999,16561,.41337164E-3,.15542E-3,0
SITRO-AIS 12 (SMIRENNIY),2023-091AQ,2026-06-22T20:38:02.494176,15.38591522,.00068714,97.5089,244.7342,58.4269,301.7646,0,U,57204,999,16564,.40998439E-3,.15562E-3,0
SITRO-AIS 11 (SHEFFER),2023-091AU,2026-06-22T19:21:28.128384,15.39018714,.0006749,97.5088,244.9299,58.2774,301.9128,0,U,57208,999,16565,.42024768E-3,.16178E-3,0
SITRO-AIS 25,2024-039R,2026-06-22T20:52:50.988576,14.93536443,.01429161,95.3910,238.9978,308.6843,50.1668,0,U,59066,999,12557,.14999394E-3,.1895E-4,0
SITRO-AIS 26,2024-039S,2026-06-22T20:55:56.650944,14.93331581,.01432737,95.3907,238.8958,309.2737,49.5849,0,U,59067,999,12556,.14480815E-3,.1819E-4,0
SITRO-AIS 27,2024-039T,2026-06-22T20:10:48.044640,14.93750681,.01422804,95.3912,239.1485,307.9722,50.8719,0,U,59068,999,12558,.13673519E-3,.1731E-4,0
SITRO-AIS 28,2024-039U,2026-06-22T19:38:07.977696,14.93785040,.01421813,95.3910,239.1805,307.8972,50.9466,0,U,59071,999,12558,.12701118E-3,.1606E-4,0
GRBBETA,2024-128C,2026-06-22T12:42:25.087392,15.06664014,.00399474,61.9882,197.5223,135.7790,224.6508,0,U,60237,999,10707,.15599383E-3,.2145E-4,0
OOV-CUBE (TUBSAT-30),2024-128F,2026-06-22T13:52:34.680288,15.02789334,.00439627,61.9926,206.7746,134.9443,225.5227,0,U,60240,999,10692,.1001519E-3,.1157E-4,0
ROBUSTA-3A (MEDITERRANEE),2024-128J,2026-06-22T10:14:13.720416,15.11716494,.00406712,61.9849,189.7146,129.0308,231.4419,0,U,60243,999,10721,.2099582E-3,.3434E-4,0
LASARSAT,2024-247Q,2026-06-22T04:59:55.341888,15.46631788,.00076237,44.9730,233.9932,0.6101,359.4797,0,U,62391,999,8409,.47719485E-3,.24063E-3,0
CROCUBE,2024-247T,2026-06-22T10:59:27.196224,15.48568004,.00075087,44.9701,229.8368,6.8076,353.2915,0,U,62394,999,8416,.48672981E-3,.26289E-3,0
FORESAIL-1 PRIME,2025-276DS,2026-06-22T19:04:14.218464,15.18744024,.00039269,97.4197,246.9630,92.2358,267.9326,0,U,66778,999,3125,.16914383E-3,.3446E-4,0
KNACKSAT-2,1998-067XZ,2026-06-22T12:55:41.728224,15.60406263,.00087704,51.6293,267.5508,238.8673,121.1461,0,U,67683,999,2111,.46548365E-3,.38699E-3,0
